[{"OBJECT_NAME":"OBJECT D","OBJECT_ID":"2024-085D","EPOCH":"2026-03-09T22:53:13.410816","MEAN_MOTION":15.33413141,"ECCENTRICITY":0.00152451,"INCLINATION":97.3312,"RA_OF_ASC_NODE":145.3953,"ARG_OF_PERICENTER":54.9672,"MEAN_ANOMALY":305.2998,"EPHEMERIS_TYPE":0,"CLASSIFICATION_TYPE":"U","NORAD_CAT_ID":59680,"ELEMENT_SET_NO":999,"REV_AT_EPOCH":10244,"BSTAR":0.00049264705,"MEAN_MOTION_DOT":0.00015903,"MEAN_MOTION_DDOT":0},{"OBJECT_NAME":"STARLINK-34330","OBJECT_ID":"2025-117AA","EPOCH":"2026-03-09T22:23:27.483936","MEAN_MOTION":15.30208324,"ECCENTRICITY":0.00013017,"INCLINATION":53.1603,"RA_OF_ASC_NODE":38.4165,"ARG_OF_PERICENTER":102.1747,"MEAN_ANOMALY":257.9399,"EPHEMERIS_TYPE":0,"CLASSIFICATION_TYPE":"U","NORAD_CAT_ID":64227,"ELEMENT_SET_NO":999,"REV_AT_EPOCH":4456,"BSTAR":0.00092481026,"MEAN_MOTION_DOT":0.00027138,"MEAN_MOTION_DDOT":0}]
